{"type": "FeatureCollection", "features": [ {"type": "Feature", "properties": {"norad_id": 34304, "name": "COSMOS 2251 DEB", "group": "cosmos-2251-debris", "lat": 12.9549229391456, "lon": 100.91966005598015, "alt_km": 837.5254093113699, "timestamp": "2025-12-26T12:57:39.666162+00:00", "meta": {"OBJECT_NAME": "COSMOS 2251 DEB", "OBJECT_ID": "1993-036NA", "EPOCH": "2025-12-25T08:50:34.993248", "MEAN_MOTION": 14.37981033, "ECCENTRICITY": 0.0128954, "INCLINATION": 74.0138, "RA_OF_ASC_NODE": 99.299, "ARG_OF_PERICENTER": 234.5497, "MEAN_ANOMALY": 195.566, "EPHEMERIS_TYPE": 0, "CLASSIFICATION_TYPE": "U", "NORAD_CAT_ID": 34304, "ELEMENT_SET_NO": 999, "REV_AT_EPOCH": 87478, "BSTAR": 0.0017049, "MEAN_MOTION_DOT": 5.652e-05, "MEAN_MOTION_DDOT": 0}, "tle": {"line1": "1 34304U 93036NA  25359.36846057  .00005652  00000+0  17049-2 0  9998", "line2": "2 34304  74.0138  99.2990 0128954 234.5497 195.5660 14.37981033874785"}}, "geometry": {"type": "Point", "coordinates": [100.91966005598015, 12.9549229391456]}}, {"type": "Feature", "properties": {"norad_id": 34307, "name": "COSMOS 2251 DEB", "group": "cosmos-2251-debris", "lat": 22.795555758051538, "lon": -62.127146188844954, "alt_km": 1069.5518372801198, "timestamp": "2025-12-26T12:57:39.666172+00:00", "meta": {"OBJECT_NAME": "COSMOS 2251 DEB", "OBJECT_ID": "1993-036ND", "EPOCH": "2025-12-26T06:19:47.575776", "MEAN_MOTION": 13.54342626, "ECCENTRICITY": 0.03917524, "INCLINATION": 74.0541, "RA_OF_ASC_NODE": 291.4151, "ARG_OF_PERICENTER": 119.3704, "MEAN_ANOMALY": 2.3521, "EPHEMERIS_TYPE": 0, "CLASSIFICATION_TYPE": "U", "NORAD_CAT_ID": 34307, "ELEMENT_SET_NO": 999, "REV_AT_EPOCH": 83045, "BSTAR": 0.00079796683, "MEAN_MOTION_DOT": 8.69e-06, "MEAN_MOTION_DDOT": 0}, "tle": {"line1": "1 34307U 93036ND  25360.26374509  .00000869  00000+0  79797-3 0  9994", "line2": "2 34307  74.0541 291.4151 0391752 119.3704   2.3521 13.54342626830454"}}, "geometry": {"type": "Point", "coordinates": [-62.127146188844954, 22.795555758051538]}}, {"type": "Feature", "properties": {"norad_id": 34313, "name": "COSMOS 2251 DEB", "group": "cosmos-2251-debris", "lat": 44.83247631165689, "lon": 79.83245051452458, "alt_km": 494.414120617761, "timestamp": "2025-12-26T12:57:39.666182+00:00", "meta": {"OBJECT_NAME": "COSMOS 2251 DEB", "OBJECT_ID": "1993-036NK", "EPOCH": "2025-12-26T04:29:26.748960", "MEAN_MOTION": 15.21524827, "ECCENTRICITY": 0.00121197, "INCLINATION": 73.9711, "RA_OF_ASC_NODE": 277.1842, "ARG_OF_PERICENTER": 60.7811, "MEAN_ANOMALY": 299.4597, "EPHEMERIS_TYPE": 0, "CLASSIFICATION_TYPE": "U", "NORAD_CAT_ID": 34313, "ELEMENT_SET_NO": 999, "REV_AT_EPOCH": 89269, "BSTAR": 0.0042719672, "MEAN_MOTION_DOT": 0.00097673, "MEAN_MOTION_DDOT": 0}, "tle": {"line1": "1 34313U 93036NK  25360.18711515  .00097673  00000+0  42720-2 0  9998", "line2": "2 34313  73.9711 277.1842 0012119  60.7811 299.4597 15.21524827892698"}}, "geometry": {"type": "Point", "coordinates": [79.83245051452458, 44.83247631165689]}}, {"type": "Feature", "properties": {"norad_id": 34314, "name": "COSMOS 2251 DEB", "group": "cosmos-2251-debris", "lat": 73.96359183285995, "lon": 17.528277285082442, "alt_km": 794.1683559034063, "timestamp": "2025-12-26T12:57:39.666192+00:00", "meta": {"OBJECT_NAME": "COSMOS 2251 DEB", "OBJECT_ID": "1993-036NL", "EPOCH": "2025-12-26T06:21:36.000000", "MEAN_MOTION": 14.17457989, "ECCENTRICITY": 0.01035779, "INCLINATION": 74.0062, "RA_OF_ASC_NODE": 284.2467, "ARG_OF_PERICENTER": 26.7338, "MEAN_ANOMALY": 100.288, "EPHEMERIS_TYPE": 0, "CLASSIFICATION_TYPE": "U", "NORAD_CAT_ID": 34314, "ELEMENT_SET_NO": 999, "REV_AT_EPOCH": 86849, "BSTAR": 0.00059558164, "MEAN_MOTION_DOT": 1.248e-05, "MEAN_MOTION_DDOT": 0}, "tle": {"line1": "1 34314U 93036NL  25360.26500000  .00001248  00000+0  59558-3 0  9994", "line2": "2 34314  74.0062 284.2467 0103577  26.7338 100.2880 14.17457989868490"}}, "geometry": {"type": "Point", "coordinates": [17.528277285082442, 73.96359183285995]}}, {"type": "Feature", "properties": {"norad_id": 34316, "name": "COSMOS 2251 DEB", "group": "cosmos-2251-debris", "lat": 22.880918317765463, "lon": -43.83828766702722, "alt_km": 583.7594886040579, "timestamp": "2025-12-26T12:57:39.666202+00:00", "meta": {"OBJECT_NAME": "COSMOS 2251 DEB", "OBJECT_ID": "1993-036NN", "EPOCH": "2025-12-25T14:19:44.175648", "MEAN_MOTION": 14.92240854, "ECCENTRICITY": 0.000919, "INCLINATION": 74.0656, "RA_OF_ASC_NODE": 311.1258, "ARG_OF_PERICENTER": 32.3565, "MEAN_ANOMALY": 327.818, "EPHEMERIS_TYPE": 0, "CLASSIFICATION_TYPE": "U", "NORAD_CAT_ID": 34316, "ELEMENT_SET_NO": 999, "REV_AT_EPOCH": 89401, "BSTAR": 0.0019689, "MEAN_MOTION_DOT": 0.00020121, "MEAN_MOTION_DDOT": 0}, "tle": {"line1": "1 34316U 93036NN  25359.59703907  .00020121  00000+0  19689-2 0  9992", "line2": "2 34316  74.0656 311.1258 0009190  32.3565 327.8180 14.92240854894011"}}, "geometry": {"type": "Point", "coordinates": [-43.83828766702722, 22.880918317765463]}}, {"type": "Feature", "properties": {"norad_id": 34317, "name": "COSMOS 2251 DEB", "group": "cosmos-2251-debris", "lat": -49.46144703995281, "lon": -6.665234930834113, "alt_km": 864.4777422903735, "timestamp": "2025-12-26T12:57:39.666213+00:00", "meta": {"OBJECT_NAME": "COSMOS 2251 DEB", "OBJECT_ID": "1993-036NP", "EPOCH": "2025-12-26T02:58:18.511968", "MEAN_MOTION": 13.6513956, "ECCENTRICITY": 0.03370119, "INCLINATION": 73.9242, "RA_OF_ASC_NODE": 13.7235, "ARG_OF_PERICENTER": 0.4101, "MEAN_ANOMALY": 65.6445, "EPHEMERIS_TYPE": 0, "CLASSIFICATION_TYPE": "U", "NORAD_CAT_ID": 34317, "ELEMENT_SET_NO": 999, "REV_AT_EPOCH": 83802, "BSTAR": 0.00066269398, "MEAN_MOTION_DOT": 7.69e-06, "MEAN_MOTION_DDOT": 0}, "tle": {"line1": "1 34317U 93036NP  25360.12382537  .00000769  00000+0  66269-3 0  9999", "line2": "2 34317  73.9242  13.7235 0337011   0.4101  65.6445 13.65139560838029"}}, "geometry": {"type": "Point", "coordinates": [-6.665234930834113, -49.46144703995281]}}, {"type": "Feature", "properties": {"norad_id": 34321, "name": "COSMOS 2251 DEB", "group": "cosmos-2251-debris", "lat": -65.25920531507279, "lon": -11.141584364455, "alt_km": 720.8656772218083, "timestamp": "2025-12-26T12:57:39.666223+00:00", "meta": {"OBJECT_NAME": "COSMOS 2251 DEB", "OBJECT_ID": "1993-036NT", "EPOCH": "2025-12-25T19:49:55.565184", "MEAN_MOTION": 14.50112007, "ECCENTRICITY": 0.00160413, "INCLINATION": 74.0288, "RA_OF_ASC_NODE": 131.774, "ARG_OF_PERICENTER": 260.6384, "MEAN_ANOMALY": 225.892, "EPHEMERIS_TYPE": 0, "CLASSIFICATION_TYPE": "U", "NORAD_CAT_ID": 34321, "ELEMENT_SET_NO": 999, "REV_AT_EPOCH": 88676, "BSTAR": 0.00065748716, "MEAN_MOTION_DOT": 2.529e-05, "MEAN_MOTION_DDOT": 0}, "tle": {"line1": "1 34321U 93036NT  25359.82633756  .00002529  00000+0  65749-3 0  9999", "line2": "2 34321  74.0288 131.7740 0016041 260.6384 225.8920 14.50112007886762"}}, "geometry": {"type": "Point", "coordinates": [-11.141584364455, -65.25920531507279]}}, {"type": "Feature", "properties": {"norad_id": 34323, "name": "COSMOS 2251 DEB", "group": "cosmos-2251-debris", "lat": 42.252079618405766, "lon": 111.18061981986189, "alt_km": 643.0845895265338, "timestamp": "2025-12-26T12:57:39.666233+00:00", "meta": {"OBJECT_NAME": "COSMOS 2251 DEB", "OBJECT_ID": "1993-036NV", "EPOCH": "2025-12-26T06:23:11.986080", "MEAN_MOTION": 14.74836721, "ECCENTRICITY": 0.00570449, "INCLINATION": 73.9525, "RA_OF_ASC_NODE": 96.561, "ARG_OF_PERICENTER": 137.1699, "MEAN_ANOMALY": 254.147, "EPHEMERIS_TYPE": 0, "CLASSIFICATION_TYPE": "U", "NORAD_CAT_ID": 34323, "ELEMENT_SET_NO": 999, "REV_AT_EPOCH": 88639, "BSTAR": 0.0021087753, "MEAN_MOTION_DOT": 0.00014507, "MEAN_MOTION_DDOT": 0}, "tle": {"line1": "1 34323U 93036NV  25360.26611095  .00014507  00000+0  21088-2 0  9999", "line2": "2 34323  73.9525  96.5610 0057044 137.1699 254.1470 14.74836721886391"}}, "geometry": {"type": "Point", "coordinates": [111.18061981986189, 42.252079618405766]}}, {"type": "Feature", "properties": {"norad_id": 34325, "name": "COSMOS 2251 DEB", "group": "cosmos-2251-debris", "lat": 18.091787626485125, "lon": 173.91473593702537, "alt_km": 1011.4488274963514, "timestamp": "2025-12-26T12:57:39.666243+00:00", "meta": {"OBJECT_NAME": "COSMOS 2251 DEB", "OBJECT_ID": "1993-036NX", "EPOCH": "2025-12-25T20:22:01.149888", "MEAN_MOTION": 14.04557216, "ECCENTRICITY": 0.01913228, "INCLINATION": 73.8708, "RA_OF_ASC_NODE": 169.7082, "ARG_OF_PERICENTER": 184.6073, "MEAN_ANOMALY": 300.2116, "EPHEMERIS_TYPE": 0, "CLASSIFICATION_TYPE": "U", "NORAD_CAT_ID": 34325, "ELEMENT_SET_NO": 999, "REV_AT_EPOCH": 85699, "BSTAR": 0.0020443656, "MEAN_MOTION_DOT": 3.821e-05, "MEAN_MOTION_DDOT": 0}, "tle": {"line1": "1 34325U 93036NX  25359.84862442  .00003821  00000+0  20444-2 0  9999", "line2": "2 34325  73.8708 169.7082 0191322 184.6073 300.2116 14.04557216856997"}}, "geometry": {"type": "Point", "coordinates": [173.91473593702537, 18.091787626485125]}}, {"type": "Feature", "properties": {"norad_id": 34327, "name": "COSMOS 2251 DEB", "group": "cosmos-2251-debris", "lat": 73.16427847104367, "lon": -144.21764488233077, "alt_km": 606.1767226568327, "timestamp": "2025-12-26T12:57:39.666270+00:00", "meta": {"OBJECT_NAME": "COSMOS 2251 DEB", "OBJECT_ID": "1993-036NZ", "EPOCH": "2025-12-25T21:00:08.868960", "MEAN_MOTION": 14.89478709, "ECCENTRICITY": 0.00337459, "INCLINATION": 73.9942, "RA_OF_ASC_NODE": 145.5616, "ARG_OF_PERICENTER": 319.4868, "MEAN_ANOMALY": 160.9451, "EPHEMERIS_TYPE": 0, "CLASSIFICATION_TYPE": "U", "NORAD_CAT_ID": 34327, "ELEMENT_SET_NO": 999, "REV_AT_EPOCH": 89703, "BSTAR": 0.0013743907, "MEAN_MOTION_DOT": 0.00013213, "MEAN_MOTION_DDOT": 0}, "tle": {"line1": "1 34327U 93036NZ  25359.87510265  .00013213  00000+0  13744-2 0  9998", "line2": "2 34327  73.9942 145.5616 0033745 319.4868 160.9451 14.89478709897034"}}, "geometry": {"type": "Point", "coordinates": [-144.21764488233077, 73.16427847104367]}}]}